H1 CPF  1  DLR 2021 08 02 10  7142 technosat            
H2  1704205 6203    42829 2021 08 02 00 00 00 2021 08 09 00 00 00    60 1 1  0 0 0
H9
10 0 59432      0.000000  0       4260608.217      -4362727.311       3395546.281
10 0 59432     60.000000  0       4336202.125      -4575946.704       2997441.261
10 0 59432    120.000000  0       4391805.985      -4770526.894       2586659.772
10 0 59432    180.000000  0       4427353.702      -4945475.712       2164939.000
10 0 59432    240.000000  0       4442872.071      -5099883.650       1734062.568
10 0 59432    300.000000  0       4438479.974      -5232928.594       1295852.899
10 0 59432    360.000000  0       4414387.098      -5343880.148        852163.378
10 0 59432    420.000000  0       4370892.206      -5432103.480        404870.405
10 0 59432    480.000000  0       4308381.085      -5497062.779        -44134.588
10 0 59432    540.000000  0       4227324.068      -5538324.350       -492953.301
10 0 59432    600.000000  0       4128273.097      -5555559.159       -939688.824
10 0 59432    660.000000  0       4011858.344      -5548544.811      -1382453.823
10 0 59432    720.000000  0       3878784.526      -5517167.036      -1819378.590
10 0 59432    780.000000  0       3729826.903      -5461420.706      -2248619.038
10 0 59432    840.000000  0       3565826.971      -5381410.322      -2668364.586
10 0 59432    900.000000  0       3387687.837      -5277349.949      -3076845.892
10 0 59432    960.000000  0       3196369.321      -5149562.634      -3472342.300
10 0 59432   1020.000000  0       2992882.836      -4998479.349      -3853189.066
10 0 59432   1080.000000  0       2778286.062      -4824637.424      -4217784.299
10 0 59432   1140.000000  0       2553677.465      -4628678.473      -4564595.597
10 0 59432   1200.000000  0       2320190.694      -4411345.817      -4892166.329
10 0 59432   1260.000000  0       2078988.904      -4173481.462      -5199121.514
10 0 59432   1320.000000  0       1831259.041      -3916022.679      -5484173.335
10 0 59432   1380.000000  0       1578206.062      -3639998.208      -5746126.295
10 0 59432   1440.000000  0       1321047.133      -3346524.061      -5983881.987
10 0 59432   1500.000000  0       1061005.843      -3036798.951      -6196443.459
10 0 59432   1560.000000  0        799306.440      -2712099.354      -6382919.177
10 0 59432   1620.000000  0        537168.142      -2373774.197      -6542526.523
10 0 59432   1680.000000  0        275799.565      -2023239.258      -6674594.848
10 0 59432   1740.000000  0         16393.268      -1661971.287      -6778568.086
10 0 59432   1800.000000  0       -239879.549      -1291501.856      -6854006.940
10 0 59432   1860.000000  0       -491874.194       -913410.978      -6900590.628
10 0 59432   1920.000000  0       -738477.487       -529320.511      -6918118.202
10 0 59432   1980.000000  0       -978612.620       -140887.360      -6906509.391
10 0 59432   2040.000000  0      -1211243.798        250203.484      -6865804.991
10 0 59432   2100.000000  0      -1435380.652        642246.057      -6796166.856
10 0 59432   2160.000000  0      -1650082.420       1033520.739      -6697877.434
10 0 59432   2220.000000  0      -1854461.845       1422301.676      -6571338.789
10 0 59432   2280.000000  0      -2047688.832       1806864.192      -6417071.209
10 0 59432   2340.000000  0      -2228993.890       2185492.337      -6235711.480
10 0 59432   2400.000000  0      -2397671.307       2556486.570      -6028010.588
10 0 59432   2460.000000  0      -2553081.947       2918171.384      -5794830.909
10 0 59432   2520.000000  0      -2694655.769       3268902.903      -5537143.042
10 0 59432   2580.000000  0      -2821894.077       3607076.487      -5256022.151
10 0 59432   2640.000000  0      -2934371.427       3931134.257      -4952643.799
10 0 59432   2700.000000  0      -3031737.167       4239572.487      -4628279.302
10 0 59432   2760.000000  0      -3113716.610       4530948.815      -4284290.632
10 0 59432   2820.000000  0      -3180111.822       4803889.248      -3922124.865
10 0 59432   2880.000000  0      -3230801.996       5057094.849      -3543308.233
10 0 59432   2940.000000  0      -3265743.478       5289348.172      -3149439.917
10 0 59432   3000.000000  0      -3284969.494       5499519.496      -2742185.404
10 0 59432   3060.000000  0      -3288589.438       5686572.661      -2323269.445
10 0 59432   3120.000000  0      -3276787.777       5849570.534      -1894468.678
10 0 59432   3180.000000  0      -3249822.508       5987680.029      -1457603.912
10 0 59432   3240.000000  0      -3208023.228       6100176.563      -1014532.164
10 0 59432   3300.000000  0      -3151788.885       6186447.936       -567138.593
10 0 59432   3360.000000  0      -3081585.274       6245997.875       -117328.335
10 0 59432   3420.000000  0      -2997942.156       6278449.069        332982.021
10 0 59432   3480.000000  0      -2901449.967       6283545.481        781873.057
10 0 59432   3540.000000  0      -2792756.163       6261154.037       1227431.161
10 0 59432   3600.000000  0      -2672561.250       6211265.622       1667757.079
10 0 59432   3660.000000  0      -2541614.607       6133995.466       2100974.344
10 0 59432   3720.000000  0      -2400710.100       6029582.905       2525237.583
10 0 59432   3780.000000  0      -2250681.499       5898390.544       2938740.622
10 0 59432   3840.000000  0      -2092397.726       5740902.836       3339724.381
10 0 59432   3900.000000  0      -1926757.987       5557724.066       3726484.542
10 0 59432   3960.000000  0      -1754686.784       5349575.744       4097378.930
10 0 59432   4020.000000  0      -1577128.862       5117293.439       4450834.559
10 0 59432   4080.000000  0      -1395044.077       4861823.095       4785354.375
10 0 59432   4140.000000  0      -1209402.184       4584216.766       5099523.564
10 0 59432   4200.000000  0      -1021177.719       4285627.923       5392015.381
10 0 59432   4260.000000  0       -831344.977       3967306.338       5661596.607
10 0 59432   4320.000000  0       -640873.049       3630592.532       5907132.620
10 0 59432   4380.000000  0       -450720.895       3276911.753       6127591.973
10 0 59432   4440.000000  0       -261832.577       2907767.666       6322050.411
10 0 59432   4500.000000  0        -75132.659       2524735.776       6489694.476
10 0 59432   4560.000000  0        108478.257       2129456.555       6629824.696
10 0 59432   4620.000000  0        288127.827       1723628.228       6741858.279
10 0 59432   4680.000000  0        462976.052       1308999.325       6825331.257
10 0 59432   4740.000000  0        632219.127        887361.095       6879900.111
10 0 59432   4800.000000  0        795093.061        460539.802       6905342.977
10 0 59432   4860.000000  0        950877.076         30388.860       6901560.433
10 0 59432   4920.000000  0       1098896.724       -401219.202       6868575.823
10 0 59432   4980.000000  0       1238526.767       -832400.913       6806535.047
10 0 59432   5040.000000  0       1369193.784      -1261270.016       6715705.815
10 0 59432   5100.000000  0       1490378.486      -1685945.627       6596476.527
10 0 59432   5160.000000  0       1601617.736      -2104560.485       6449354.681
10 0 59432   5220.000000  0       1702506.299      -2515269.138       6274964.749
10 0 59432   5280.000000  0       1792698.267      -2916256.069       6074045.632
10 0 59432   5340.000000  0       1871908.174      -3305743.750       5847447.632
10 0 59432   5400.000000  0       1939911.812      -3682000.527       5596128.946
10 0 59432   5460.000000  0       1996546.713      -4043348.325       5321151.728
10 0 59432   5520.000000  0       2041712.348      -4388170.138       5023677.780
10 0 59432   5580.000000  0       2075370.031      -4714917.366       4704963.847
10 0 59432   5640.000000  0       2097542.540      -5022116.938       4366356.502
10 0 59432   5700.000000  0       2108313.414      -5308378.174       4009286.535
10 0 59432   5760.000000  0       2107825.874      -5572399.232       3635262.934
10 0 59432   5820.000000  0       2096281.409      -5812973.178       3245866.577
10 0 59432   5880.000000  0       2073938.102      -6028993.679       2842743.574
10 0 59432   5940.000000  0       2041108.692      -6219460.226       2427598.315
10 0 59432   6000.000000  0       1998158.372      -6383482.889       2002186.245
10 0 59432   6060.000000  0       1945502.337      -6520286.632       1568306.471
10 0 59432   6120.000000  0       1883603.024      -6629215.176       1127794.044
10 0 59432   6180.000000  0       1812967.085      -6709734.190        682512.090
10 0 59432   6240.000000  0       1734142.201      -6761434.030        234343.891
10 0 59432   6300.000000  0       1647713.694      -6784032.004       -214815.308
10 0 59432   6360.000000  0       1554300.857      -6777373.845       -663066.623
10 0 59432   6420.000000  0       1454553.139      -6741434.433      -1108515.781
10 0 59432   6480.000000  0       1349146.233      -6676317.969      -1549281.164
10 0 59432   6540.000000  0       1238777.997      -6582257.704      -1983501.858
10 0 59432   6600.000000  0       1124164.291      -6459614.923      -2409345.666
10 0 59432   6660.000000  0       1006034.873      -6308877.295      -2825016.882
10 0 59432   6720.000000  0        885129.236      -6130656.727      -3228763.871
10 0 59432   6780.000000  0        762192.398      -5925686.658      -3618886.443
10 0 59432   6840.000000  0        637970.675      -5694818.774      -3993742.989
10 0 59432   6900.000000  0        513207.501      -5439019.177      -4351757.294
10 0 59432   6960.000000  0        388639.309      -5159364.077      -4691424.998
10 0 59432   7020.000000  0        264991.518      -4857035.034      -5011319.734
10 0 59432   7080.000000  0        142974.607      -4533313.775      -5310098.927
10 0 59432   7140.000000  0         23280.310      -4189576.554      -5586509.231
99
